NORAD_CAT_ID,OBJECT_NAME,OBJECT_TYPE,EPOCH,MEAN_MOTION,ECCENTRICITY,INCLINATION,RA_OF_ASC_NODE,ARG_OF_PERICENTER,MEAN_ANOMALY,BSTAR,MEAN_MOTION_DOT,MEAN_MOTION_DDOT,TLE_LINE0,TLE_LINE1,TLE_LINE2,SEMIMAJOR_AXIS,PERIOD,APOGEE,PERIGEE,DECAYED
51814.0,STARLINK-3599,PAYLOAD,2024-04-26 19:40:53,15.08849514,0.0001591,53.2157,150.1561,84.8805,275.2368,0.00012703,1.735e-05,0.0,0 STARLINK-3599,1 51814U 22017AY  24117.82006797  .00001735  00000-0  12703-3 0  9997,2 51814  53.2157 150.1561 0001591  84.8805 275.2368 15.08849514121149,6917.851,95.437,540.817,538.616,0.0
51814.0,STARLINK-3599,PAYLOAD,2024-04-27 08:23:58,15.08856976,0.0001539,53.2155,147.7752,93.0284,267.0884,0.00018467,2.654e-05,0.0,0 STARLINK-3599,1 51814U 22017AY  24118.34998131  .00002654  00000-0  18467-3 0  9991,2 51814  53.2155 147.7752 0001539  93.0284 267.0884 15.08856976121227,6917.829,95.436,540.758,538.629,0.0
51814.0,STARLINK-3599,PAYLOAD,2024-04-27 19:31:40,15.08844725,0.0001366,53.2155,145.6941,80.1524,279.9623,6.2872e-05,7.13e-06,0.0,0 STARLINK-3599,1 51814U 22017AY  24118.81366583  .00000713  00000-0  62872-4 0  9997,2 51814  53.2155 145.6941 0001366  80.1524 279.9623 15.08844725121419,6917.866,95.437,540.676,538.786,0.0
51814.0,STARLINK-3599,PAYLOAD,2024-04-28 08:14:47,15.0882976,0.0001612,53.2166,143.3146,86.2982,273.8195,-6.8855e-05,-1.383e-05,0.0,0 STARLINK-3599,1 51814U 22017AY  24119.34360126 -.00001383  00000-0 -68855-4 0  9996,2 51814  53.2166 143.3146 0001612  86.2982 273.8195 15.08829760121499,6917.912,95.438,540.892,538.662,0.0
51814.0,STARLINK-3599,PAYLOAD,2024-04-29 04:54:47,15.08837864,0.0001552,53.2167,139.4491,85.9294,274.1875,1.0341e-05,-1.23e-06,0.0,0 STARLINK-3599,1 51814U 22017AY  24120.20471679 -.00000123  00000-0  10341-4 0  9996,2 51814  53.2167 139.4491 0001552  85.9294 274.1875 15.08837864121622,6917.887,95.438,540.826,538.678,0.0
51814.0,STARLINK-3599,PAYLOAD,2024-04-29 11:16:20,15.08839602,0.0001526,53.2164,138.2603,81.0378,279.0787,6.6795e-05,7.75e-06,0.0,0 STARLINK-3599,1 51814U 22017AY  24120.46967606  .00000775  00000-0  66795-4 0  9990,2 51814  53.2164 138.2603 0001526  81.0378 279.0787 15.08839602121541,6917.882,95.438,540.802,538.691,0.0
51814.0,STARLINK-3599,PAYLOAD,2024-04-29 17:37:52,15.08839344,0.0001524,53.2159,137.0705,78.8155,281.3009,5.3145e-05,5.58e-06,0.0,0 STARLINK-3599,1 51814U 22017AY  24120.73463694  .00000558  00000-0  53145-4 0  9992,2 51814  53.2159 137.0705 0001524  78.8155 281.3009 15.08839344121580,6917.882,95.438,540.802,538.693,0.0
51814.0,STARLINK-3599,PAYLOAD,2024-04-30 07:56:21,15.08845089,0.0001568,53.216,134.3944,76.3301,283.7865,0.00036745,5.566e-05,0.0,0 STARLINK-3599,1 51814U 22017AY  24121.33079934  .00005566  00000-0  36745-3 0  9999,2 51814  53.2160 134.3944 0001568  76.3301 283.7865 15.08845089121793,6917.865,95.437,540.815,538.645,0.0
51814.0,STARLINK-3599,PAYLOAD,2024-05-01 10:57:53,15.08850136,0.0001561,53.2157,129.3389,75.5832,284.5334,0.00017904,2.563e-05,0.0,0 STARLINK-3599,1 51814U 22017AY  24122.45687273  .00002563  00000-0  17904-3 0  9994,2 51814  53.2157 129.3389 0001561  75.5832 284.5334 15.08850136121967,6917.849,95.437,540.794,538.635,0.0
51814.0,STARLINK-3599,PAYLOAD,2024-05-01 17:19:26,15.08846436,0.0001539,53.2153,128.1492,75.8181,284.2982,8.6666e-05,1.092e-05,0.0,0 STARLINK-3599,1 51814U 22017AY  24122.72183292  .00001092  00000-0  86666-4 0  9994,2 51814  53.2153 128.1492 0001539  75.8181 284.2982 15.08846436121885,6917.861,95.437,540.79,538.661,0.0
51814.0,STARLINK-3599,PAYLOAD,2024-05-02 04:27:08,15.08844636,0.0001583,53.2159,126.068,80.1355,279.9816,6.0123e-05,6.69e-06,0.0,0 STARLINK-3599,1 51814U 22017AY  24123.18551360  .00000669  00000-0  60123-4 0  9999,2 51814  53.2159 126.0680 0001583  80.1355 279.9816 15.08844636122077,6917.866,95.437,540.826,538.636,0.0
51814.0,STARLINK-3599,PAYLOAD,2024-05-02 09:13:17,15.08844893,0.0001577,53.2156,125.1757,79.1633,280.9537,4.176e-05,3.77e-06,0.0,0 STARLINK-3599,1 51814U 22017AY  24123.38423250  .00000377  00000-0  41760-4 0  9999,2 51814  53.2156 125.1757 0001577  79.1633 280.9537 15.08844893121985,6917.865,95.437,540.821,538.639,0.0
51814.0,STARLINK-3599,PAYLOAD,2024-05-03 04:17:55,15.08839917,0.0001546,53.2158,121.6069,84.882,275.2349,3.2836e-05,2.35e-06,0.0,0 STARLINK-3599,1 51814U 22017AY  24124.17911852  .00000235  00000-0  32836-4 0  9994,2 51814  53.2158 121.6069 0001546  84.8820 275.2349 15.08839917122228,6917.881,95.438,540.815,538.676,0.0
51814.0,STARLINK-3599,PAYLOAD,2024-05-03 09:04:05,15.08841543,0.0001526,53.216,120.7148,84.9466,275.17,3.0983e-05,2.05e-06,0.0,0 STARLINK-3599,1 51814U 22017AY  24124.37783670  .00000205  00000-0  30983-4 0  9999,2 51814  53.2160 120.7148 0001526  84.9466 275.1700 15.08841543122132,6917.876,95.437,540.796,538.685,0.0
51814.0,STARLINK-3599,PAYLOAD,2024-05-03 17:01:00,15.08839254,0.0001557,53.2164,119.2282,85.3139,274.8031,2.0358e-05,3.6e-07,0.0,0 STARLINK-3599,1 51814U 22017AY  24124.70903832  .00000036  00000-0  20358-4 0  9997,2 51814  53.2164 119.2282 0001557  85.3139 274.8031 15.08839254122188,6917.883,95.438,540.825,538.671,0.0
51814.0,STARLINK-3599,PAYLOAD,2024-05-04 05:44:06,15.08837642,0.0001543,53.2161,116.8497,85.8474,274.2694,3.6306e-05,2.9e-06,0.0,0 STARLINK-3599,1 51814U 22017AY  24125.23896004  .00000290  00000-0  36306-4 0  9990,2 51814  53.2161 116.8497 0001543  85.8474 274.2694 15.08837642122388,6917.888,95.438,540.82,538.685,0.0
51814.0,STARLINK-3599,PAYLOAD,2024-05-04 16:51:46,15.08861566,0.0001431,53.2165,114.7678,83.6599,276.4556,0.00024132,3.557e-05,0.0,0 STARLINK-3599,1 51814U 22017AY  24125.70261720  .00003557  00000-0  24132-3 0  9995,2 51814  53.2165 114.7678 0001431  83.6599 276.4556 15.08861566122451,6917.814,95.436,540.669,538.69,0.0
51814.0,STARLINK-3599,PAYLOAD,2024-05-05 03:59:29,15.0884099,0.0001853,53.2164,112.6865,28.0393,332.0699,8.2115e-05,1.019e-05,0.0,0 STARLINK-3599,1 51814U 22017AY  24126.16630900  .00001019  00000-0  82115-4 0  9993,2 51814  53.2164 112.6865 0001853  28.0393 332.0699 15.08840990122521,6917.877,95.437,541.024,538.46,0.0
51814.0,STARLINK-3599,PAYLOAD,2024-05-05 08:45:38,15.08834702,0.0001423,53.2171,111.7925,95.4453,264.6702,-7.0045e-06,-3.99e-06,0.0,0 STARLINK-3599,1 51814U 22017AY  24126.36503311 -.00000399  00000-0 -70045-5 0  9992,2 51814  53.2171 111.7925 0001423  95.4453 264.6702 15.08834702122433,6917.897,95.438,540.746,538.777,0.0
51814.0,STARLINK-3599,PAYLOAD,2024-05-06 03:50:17,15.08824193,0.0001215,53.2167,108.2237,92.0525,268.0607,-7.5637e-05,-1.491e-05,0.0,0 STARLINK-3599,1 51814U 22017AY  24127.15992512 -.00001491  00000-0 -75637-4 0  9990,2 51814  53.2167 108.2237 0001215  92.0525 268.0607 15.08824193122678,6917.929,95.439,540.634,538.953,0.0
51814.0,STARLINK-3599,PAYLOAD,2024-05-06 08:36:26,15.08824999,0.0001521,53.2177,107.3309,102.0037,258.1126,-6.7865e-05,-1.367e-05,0.0,0 STARLINK-3599,1 51814U 22017AY  24127.35864582 -.00001367  00000-0 -67865-4 0  9993,2 51814  53.2177 107.3309 0001521 102.0037 258.1126 15.08824999122589,6917.926,95.439,540.843,538.739,0.0
51814.0,STARLINK-3599,PAYLOAD,2024-05-07 05:16:22,15.08953161,0.0001796,53.217,103.4672,69.7916,290.3269,-0.001545,-0.00024869,0.0,0 STARLINK-3599,1 51814U 22017AY  24128.21970854 -.00024869  00000-0 -15450-2 0  9992,2 51814  53.2170 103.4672 0001796  69.7916 290.3269 15.08953161122839,6917.535,95.43,540.642,538.157,0.0
51814.0,STARLINK-3599,PAYLOAD,2024-05-07 10:02:35,15.08839577,0.0001351,53.2176,102.5768,95.6276,264.487,0.00022216,3.249e-05,0.0,0 STARLINK-3599,1 51814U 22017AY  24128.41846795  .00003249  00000-0  22216-3 0  9996,2 51814  53.2176 102.5768 0001351  95.6276 264.4870 15.08839577122862,6917.882,95.438,540.681,538.812,0.0
51814.0,STARLINK-3599,PAYLOAD,2024-05-07 22:45:42,15.08826086,0.000128,53.2172,100.1983,89.7196,270.3943,7.7327e-05,9.43e-06,0.0,0 STARLINK-3599,1 51814U 22017AY  24128.94840595  .00000943  00000-0  77327-4 0  9998,2 51814  53.2172 100.1983 0001280  89.7196 270.3943 15.08826086122821,6917.923,95.438,540.673,538.902,0.0
51814.0,STARLINK-3599,PAYLOAD,2024-05-08 05:07:14,15.0883302,0.0001271,53.2171,99.0095,100.9514,259.1621,0.00013842,1.915e-05,0.0,0 STARLINK-3599,1 51814U 22017AY  24129.21336361  .00001915  00000-0  13842-3 0  9991,2 51814  53.2171  99.0095 0001271 100.9514 259.1621 15.08833020122981,6917.902,95.438,540.646,538.887,0.0
51814.0,STARLINK-3599,PAYLOAD,2024-05-08 08:18:00,15.08836603,0.0001265,53.2172,98.4134,96.0371,264.0766,0.00017802,2.546e-05,0.0,0 STARLINK-3599,1 51814U 22017AY  24129.34584204  .00002546  00000-0  17802-3 0  9997,2 51814  53.2172  98.4134 0001265  96.0371 264.0766 15.08836603122882,6917.891,95.438,540.631,538.881,0.0
51814.0,STARLINK-3599,PAYLOAD,2024-05-08 14:39:33,15.08838303,0.0001327,53.2166,97.2235,94.3116,265.8027,0.00014869,2.079e-05,0.0,0 STARLINK-3599,1 51814U 22017AY  24129.61080252  .00002079  00000-0  14869-3 0  9992,2 51814  53.2166  97.2235 0001327  94.3116 265.8027 15.08838303122924,6917.886,95.438,540.669,538.833,0.0
51814.0,STARLINK-3599,PAYLOAD,2024-05-09 06:33:24,15.08846507,0.000144,53.2174,94.2509,101.0587,259.0567,0.00014752,2.061e-05,0.0,0 STARLINK-3599,1 51814U 22017AY  24130.27320019  .00002061  00000-0  14752-3 0  9996,2 51814  53.2174  94.2509 0001440 101.0587 259.0567 15.08846507123142,6917.86,95.437,540.722,538.729,0.0
51814.0,STARLINK-3599,PAYLOAD,2024-05-09 14:30:20,15.08844952,0.0001393,53.2176,92.7636,95.1949,264.9202,0.00010202,1.336e-05,0.0,0 STARLINK-3599,1 51814U 22017AY  24130.60440024  .00001336  00000-0  10202-3 0  9992,2 51814  53.2176  92.7636 0001393  95.1949 264.9202 15.08844952123075,6917.865,95.437,540.694,538.767,0.0
51814.0,STARLINK-3599,PAYLOAD,2024-05-10 03:13:25,15.08841448,0.0001556,53.2176,90.3856,99.2534,260.8634,0.00012268,1.665e-05,0.0,0 STARLINK-3599,1 51814U 22017AY  24131.13432475  .00001665  00000-0  12268-3 0  9991,2 51814  53.2176  90.3856 0001556  99.2534 260.8634 15.08841448123272,6917.876,95.437,540.817,538.665,0.0
